{
  "type": "FeatureCollection",
  "features": [
    {
      "type": "Feature",
      "properties": {
        "norad_id": 35462,
        "name": "COSMOS 2251 DEB",
        "group": "cosmos-2251-debris",
        "lat": 71.53912832460475,
        "lon": -56.78298982470228,
        "alt_km": 846.2847732046866,
        "timestamp": "2025-12-26T05:31:12.902676+00:00",
        "meta_object_name": "COSMOS 2251 DEB",
        "meta_object_id": "1993-036ALG",
        "meta_epoch": "2025-12-24T22:54:22.815936",
        "meta_mean_motion": 14.29379641,
        "meta_eccentricity": 0.0086649,
        "meta_inclination": 74.0358,
        "meta_ra_of_asc_node": 246.4998,
        "meta_arg_of_pericenter": 279.062,
        "meta_mean_anomaly": 80.0732,
        "meta_ephemeris_type": 0,
        "meta_classification_type": "U",
        "meta_norad_cat_id": 35462,
        "meta_element_set_no": 999,
        "meta_rev_at_epoch": 66555,
        "meta_bstar": 0.0013247,
        "meta_mean_motion_dot": 3.491e-05,
        "meta_mean_motion_ddot": 0,
        "tle_line1": "1 35462U 93036ALG 25358.95443074  .00003491  00000+0  13247-2 0  9995",
        "tle_line2": "2 35462  74.0358 246.4998 0086649 279.0620  80.0732 14.29379641665553"
      },
      "geometry": {
        "type": "Point",
        "coordinates": [
          -56.78298982470228,
          71.53912832460475
        ]
      }
    },
    {
      "type": "Feature",
      "properties": {
        "norad_id": 35465,
        "name": "COSMOS 2251 DEB",
        "group": "cosmos-2251-debris",
        "lat": 31.57915250726757,
        "lon": -18.29370136751525,
        "alt_km": 787.9241589951544,
        "timestamp": "2025-12-26T05:31:12.902685+00:00",
        "meta_object_name": "COSMOS 2251 DEB",
        "meta_object_id": "1993-036ALK",
        "meta_epoch": "2025-12-23T05:21:40.851936",
        "meta_mean_motion": 14.44343886,
        "meta_eccentricity": 0.00645011,
        "meta_inclination": 73.9972,
        "meta_ra_of_asc_node": 177.4731,
        "meta_arg_of_pericenter": 335.4735,
        "meta_mean_anomaly": 24.3357,
        "meta_ephemeris_type": 0,
        "meta_classification_type": "U",
        "meta_norad_cat_id": 35465,
        "meta_element_set_no": 999,
        "meta_rev_at_epoch": 87393,
        "meta_bstar": 0.00030952177,
        "meta_mean_motion_dot": 1.064e-05,
        "meta_mean_motion_ddot": 0,
        "tle_line1": "1 35465U 93036ALK 25357.22338949  .00001064  00000+0  30952-3 0  9998",
        "tle_line2": "2 35465  73.9972 177.4731 0064501 335.4735  24.3357 14.44343886873937"
      },
      "geometry": {
        "type": "Point",
        "coordinates": [
          -18.29370136751525,
          31.57915250726757
        ]
      }
    },
    {
      "type": "Feature",
      "properties": {
        "norad_id": 35469,
        "name": "COSMOS 2251 DEB",
        "group": "cosmos-2251-debris",
        "lat": -64.81996001148046,
        "lon": -143.9244194918265,
        "alt_km": 741.8425748299196,
        "timestamp": "2025-12-26T05:31:12.902695+00:00",
        "meta_object_name": "COSMOS 2251 DEB",
        "meta_object_id": "1993-036ALP",
        "meta_epoch": "2025-12-25T08:30:10.757088",
        "meta_mean_motion": 14.49829741,
        "meta_eccentricity": 0.0076333,
        "meta_inclination": 74.0167,
        "meta_ra_of_asc_node": 0.1572,
        "meta_arg_of_pericenter": 152.3641,
        "meta_mean_anomaly": 208.161,
        "meta_ephemeris_type": 0,
        "meta_classification_type": "U",
        "meta_norad_cat_id": 35469,
        "meta_element_set_no": 999,
        "meta_rev_at_epoch": 88294,
        "meta_bstar": 9.3047e-05,
        "meta_mean_motion_dot": 3.43e-06,
        "meta_mean_motion_ddot": 0,
        "tle_line1": "1 35469U 93036ALP 25359.35429117  .00000343  00000+0  93047-4 0  9990",
        "tle_line2": "2 35469  74.0167   0.1572 0076333 152.3641 208.1610 14.49829741882941"
      },
      "geometry": {
        "type": "Point",
        "coordinates": [
          -143.9244194918265,
          -64.81996001148046
        ]
      }
    },
    {
      "type": "Feature",
      "properties": {
        "norad_id": 35475,
        "name": "COSMOS 2251 DEB",
        "group": "cosmos-2251-debris",
        "lat": -4.614180517648451,
        "lon": 138.12930714621555,
        "alt_km": 675.5083521154056,
        "timestamp": "2025-12-26T05:31:12.902705+00:00",
        "meta_object_name": "COSMOS 2251 DEB",
        "meta_object_id": "1993-036ALV",
        "meta_epoch": "2025-12-24T15:58:31.837728",
        "meta_mean_motion": 14.69981739,
        "meta_eccentricity": 0.00200174,
        "meta_inclination": 74.0221,
        "meta_ra_of_asc_node": 142.4886,
        "meta_arg_of_pericenter": 215.4877,
        "meta_mean_anomaly": 144.4964,
        "meta_ephemeris_type": 0,
        "meta_classification_type": "U",
        "meta_norad_cat_id": 35475,
        "meta_element_set_no": 999,
        "meta_rev_at_epoch": 65792,
        "meta_bstar": 0.0021631637,
        "meta_mean_motion_dot": 0.00013001,
        "meta_mean_motion_ddot": 0,
        "tle_line1": "1 35475U 93036ALV 25358.66564627  .00013001  00000+0  21632-2 0  9990",
        "tle_line2": "2 35475  74.0221 142.4886 0020017 215.4877 144.4964 14.69981739657927"
      },
      "geometry": {
        "type": "Point",
        "coordinates": [
          138.12930714621555,
          -4.614180517648451
        ]
      }
    },
    {
      "type": "Feature",
      "properties": {
        "norad_id": 35476,
        "name": "COSMOS 2251 DEB",
        "group": "cosmos-2251-debris",
        "lat": 47.5673951577778,
        "lon": -163.8965024771295,
        "alt_km": 643.8786305913609,
        "timestamp": "2025-12-26T05:31:12.902715+00:00",
        "meta_object_name": "COSMOS 2251 DEB",
        "meta_object_id": "1993-036ALW",
        "meta_epoch": "2025-12-24T22:18:15.071040",
        "meta_mean_motion": 14.75917923,
        "meta_eccentricity": 0.00184576,
        "meta_inclination": 73.9777,
        "meta_ra_of_asc_node": 36.9779,
        "meta_arg_of_pericenter": 13.4242,
        "meta_mean_anomaly": 48.0996,
        "meta_ephemeris_type": 0,
        "meta_classification_type": "U",
        "meta_norad_cat_id": 35476,
        "meta_element_set_no": 999,
        "meta_rev_at_epoch": 88067,
        "meta_bstar": 0.0016886358,
        "meta_mean_motion_dot": 0.00011625,
        "meta_mean_motion_ddot": 0,
        "tle_line1": "1 35476U 93036ALW 25358.92934110  .00011625  00000+0  16886-2 0  9993",
        "tle_line2": "2 35476  73.9777  36.9779 0018457  13.4242  48.0996 14.75917923880672"
      },
      "geometry": {
        "type": "Point",
        "coordinates": [
          -163.8965024771295,
          47.5673951577778
        ]
      }
    },
    {
      "type": "Feature",
      "properties": {
        "norad_id": 35580,
        "name": "COSMOS 2251 DEB",
        "group": "cosmos-2251-debris",
        "lat": 73.59533779653255,
        "lon": -125.41581749396343,
        "alt_km": 872.3011532895716,
        "timestamp": "2025-12-26T05:31:12.902725+00:00",
        "meta_object_name": "COSMOS 2251 DEB",
        "meta_object_id": "1993-036ALX",
        "meta_epoch": "2025-12-22T19:33:13.925664",
        "meta_mean_motion": 13.83921158,
        "meta_eccentricity": 0.0280776,
        "meta_inclination": 73.9007,
        "meta_ra_of_asc_node": 161.5885,
        "meta_arg_of_pericenter": 164.8747,
        "meta_mean_anomaly": 196.0996,
        "meta_ephemeris_type": 0,
        "meta_classification_type": "U",
        "meta_norad_cat_id": 35580,
        "meta_element_set_no": 999,
        "meta_rev_at_epoch": 62396,
        "meta_bstar": 0.0019852622,
        "meta_mean_motion_dot": 2.966e-05,
        "meta_mean_motion_ddot": 0,
        "tle_line1": "1 35580U 93036ALX 25356.81474451  .00002966  00000+0  19853-2 0  9997",
        "tle_line2": "2 35580  73.9007 161.5885 0280776 164.8747 196.0996 13.83921158623967"
      },
      "geometry": {
        "type": "Point",
        "coordinates": [
          -125.41581749396343,
          73.59533779653255
        ]
      }
    },
    {
      "type": "Feature",
      "properties": {
        "norad_id": 35583,
        "name": "COSMOS 2251 DEB",
        "group": "cosmos-2251-debris",
        "lat": -18.536950662329115,
        "lon": 15.704450462660894,
        "alt_km": 777.7311286171616,
        "timestamp": "2025-12-26T05:31:12.902735+00:00",
        "meta_object_name": "COSMOS 2251 DEB",
        "meta_object_id": "1993-036AMA",
        "meta_epoch": "2025-12-25T05:29:42.958752",
        "meta_mean_motion": 13.55357514,
        "meta_eccentricity": 0.0384921,
        "meta_inclination": 73.9156,
        "meta_ra_of_asc_node": 191.7748,
        "meta_arg_of_pericenter": 213.8276,
        "meta_mean_anomaly": 143.7737,
        "meta_ephemeris_type": 0,
        "meta_classification_type": "U",
        "meta_norad_cat_id": 35583,
        "meta_element_set_no": 999,
        "meta_rev_at_epoch": 82581,
        "meta_bstar": 0.00086553,
        "meta_mean_motion_dot": 9.41e-06,
        "meta_mean_motion_ddot": 0,
        "tle_line1": "1 35583U 93036AMA 25359.22896943  .00000941  00000+0  86553-3 0  9995",
        "tle_line2": "2 35583  73.9156 191.7748 0384921 213.8276 143.7737 13.55357514825815"
      },
      "geometry": {
        "type": "Point",
        "coordinates": [
          15.704450462660894,
          -18.536950662329115
        ]
      }
    }
  ]
}